STARLINK-31305          
1 59232U 24049B   26199.49662646 -.00002780  00000+0 -91482-4 0  9996
2 59232  43.0014 124.5896 0000888 260.8992  99.1759 15.27596863132390
STARLINK-31459          
1 59233U 24049C   26199.18512285  .00002001  00000+0  82221-4 0  9991
2 59233  43.0033 126.5706 0001013 281.1427  78.9310 15.27585493132355
STARLINK-31438          
1 59234U 24049D   26198.81081502  .00000391  00000+0  23721-4 0  9994
2 59234  42.9990 117.6731 0000411 268.6313  91.4492 15.27572335132420
STARLINK-31467          
1 59235U 24049E   26198.85561816  .00000150  00000+0  14962-4 0  9990
2 59235  43.0021 128.4000 0000816 272.4568  87.6190 15.27576044132312
STARLINK-31444          
1 59236U 24049F   26199.63078324  .00004161  00000+0  10934-3 0  9995
2 59236  42.9991  47.3632 0009285 270.4916  89.4876 15.39962903133285
STARLINK-31505          
1 59237U 24049G   26199.51590552  .00000519  00000+0  28384-4 0  9997
2 59237  43.0033 124.7626 0001299 269.1015  90.9688 15.27576454132411
STARLINK-31494          
1 59238U 24049H   26199.49407743 -.00000203  00000+0  21302-5 0  9999
2 59238  43.0029 124.5883 0000632 294.1954  65.8832 15.27572829132414
STARLINK-31303          
1 59239U 24049J   26199.48137470 -.00000087  00000+0  63690-5 0  9992
2 59239  43.0026 114.0492 0000876 275.5755  84.4997 15.27573426132530
STARLINK-31408          
1 59240U 24049K   26199.20696437  .00000513  00000+0  28166-4 0  9998
2 59240  43.0022 126.7337 0001073 248.1859 111.8879 15.27578298132364
STARLINK-31427          
1 59241U 24049L   26199.21082317  .00001386  00000+0  59913-4 0  9999
2 59241  43.0027 126.7332 0001168 259.6895 100.3825 15.27565308132369
STARLINK-31423          
1 59242U 24049M   26199.20439512  .00000520  00000+0  28416-4 0  9995
2 59242  43.0023 126.7098 0001225 272.8169  87.2542 15.27587626132366
STARLINK-31433          
1 59243U 24049N   26199.50562669 -.00001617  00000+0 -49238-4 0  9994
2 59243  43.0027 124.6771 0000812 268.7533  91.3226 15.27582480132410
STARLINK-31285          
1 59244U 24049P   26199.49020882 -.00006282  00000+0 -21877-3 0  9990
2 59244  43.0017 124.5565 0001589 291.9629  68.1054 15.27606950132405
STARLINK-31284          
1 59246U 24049R   26199.17484297  .00000599  00000+0  31278-4 0  9991
2 59246  43.0022 126.4925 0000675 262.6197  97.4577 15.27578620132355
STARLINK-31424          
1 59247U 24049S   26199.18432091 -.00000195  00000+0  24436-5 0  9990
2 59247  43.0026 123.0965 0001008 266.1773  93.8964 15.27576829132390
STARLINK-31405          
1 59248U 24049T   26199.52361392  .00000363  00000+0  22719-4 0  9991
2 59248  43.0028 124.8061 0001430 271.4438  88.6250 15.27581307132404
STARLINK-31426          
1 59249U 24049U   26199.20053770  .00000532  00000+0  28852-4 0  9997
2 59249  43.0028 126.6755 0001242 272.3515  87.7195 15.27575218132358
STARLINK-31407          
1 59250U 24049V   26199.12103998  .00000565  00000+0  30061-4 0  9999
2 59250  43.0002 115.6962 0000646 279.1416  80.9363 15.27576241132474
STARLINK-31393          
1 59252U 24049X   26199.45873349  .00000459  00000+0  26194-4 0  9995
2 59252  43.0013 110.4639 0000560 281.5737  78.5051 15.27575702132579
STARLINK-31425          
1 59253U 24049Y   26199.49791656  .00000167  00000+0  15575-4 0  9997
2 59253  43.0020 124.6151 0000532 269.4278  90.6513 15.27574863132405
STARLINK-31659          
1 59254U 24050A   26199.51097485 -.00001261  00000+0 -26222-4 0  9991
2 59254  53.1601 288.6876 0000877  83.9816 276.1287 15.34387101131792
STARLINK-31629          
1 59255U 24050B   26199.29061422 -.00000553  00000+0 -65362-5 0  9991
2 59255  53.1606 294.4051 0001278  96.3400 263.7746 15.30199490130543
STARLINK-31652          
1 59256U 24050C   26199.23930134  .00002020  00000+0  76882-4 0  9998
2 59256  53.1597 294.0929 0001246  58.2823 301.8300 15.31685620130540
STARLINK-31637          
1 59258U 24050E   26199.53669425 -.00000375  00000+0  22209-7 0  9994
2 59258  53.1613 292.3898 0001256  83.3543 276.7602 15.34390252130593
STARLINK-31506          
1 59259U 24050F   26199.54870686  .00002835  00000+0  10780-3 0  9998
2 59259  53.1585 293.1727 0000990  84.3466 275.7647 15.30197940130583
STARLINK-31639          
1 59261U 24050H   26199.29988042 -.00000355  00000+0  32428-6 0  9991
2 59261  53.1588 293.7557 0000673  93.7422 266.3657 15.31704091130556
STARLINK-31598          
1 59263U 24050K   26199.28035510 -.00001366  00000+0 -29303-4 0  9995
2 59263  53.1599 293.6137 0001211  81.8235 278.2905 15.34387379130559
STARLINK-31645          
1 59264U 24050L   26199.63760207  .00011893  00000+0  36258-3 0  9993
2 59264  53.1588 292.3044 0000953  89.3253 270.7859 15.34398613130600
STARLINK-31646          
1 59265U 24050M   26199.28667749  .00005899  00000+0  18555-3 0  9991
2 59265  53.1571 293.6688 0001081  96.3733 263.7393 15.34403551130552
STARLINK-31648          
1 59266U 24050N   26199.28111697 -.00000019  00000+0  11463-4 0  9990
2 59266  53.1602 294.3466 0000975  79.5275 280.5836 15.30198005130544
