OBJECT_NAME,OBJECT_ID,EPOCH,MEAN_MOTION,ECCENTRICITY,INCLINATION,RA_OF_ASC_NODE,ARG_OF_PERICENTER,MEAN_ANOMALY,EPHEMERIS_TYPE,CLASSIFICATION_TYPE,NORAD_CAT_ID,ELEMENT_SET_NO,REV_AT_EPOCH,BSTAR,MEAN_MOTION_DOT,MEAN_MOTION_DDOT
STARLINK-31305,2024-049B,2026-07-18T11:55:08.526144,15.27596863,.00008889,43.0014,124.5896,260.8992,99.1759,0,U,59232,999,13239,-.91482424E-4,-.278E-4,0
STARLINK-31459,2024-049C,2026-07-18T04:26:34.614240,15.27585493,.00010136,43.0033,126.5706,281.1427,78.9310,0,U,59233,999,13235,.82220805E-4,.2001E-4,0
STARLINK-31438,2024-049D,2026-07-17T19:27:34.417728,15.27572335,.00004116,42.9990,117.6731,268.6313,91.4492,0,U,59234,999,13242,.23721303E-4,.391E-5,0
STARLINK-31467,2024-049E,2026-07-17T20:32:05.409024,15.27576044,.00008164,43.0021,128.4000,272.4568,87.6190,0,U,59235,999,13231,.14961719E-4,.15E-5,0
STARLINK-31444,2024-049F,2026-07-18T15:08:19.671936,15.39962903,.00092856,42.9991,47.3632,270.4916,89.4876,0,U,59236,999,13328,.10934469E-3,.4161E-4,0
STARLINK-31505,2024-049G,2026-07-18T12:22:54.236928,15.27576454,.00012992,43.0033,124.7626,269.1015,90.9688,0,U,59237,999,13241,.28384391E-4,.519E-5,0
STARLINK-31494,2024-049H,2026-07-18T11:51:28.289952,15.27572829,.00006324,43.0029,124.5883,294.1954,65.8832,0,U,59238,999,13241,.213024E-5,-.203E-5,0
STARLINK-31303,2024-049J,2026-07-18T11:33:10.774080,15.27573426,.0000876,43.0026,114.0492,275.5755,84.4997,0,U,59239,999,13253,.6368963E-5,-.87E-6,0
STARLINK-31408,2024-049K,2026-07-18T04:58:01.721568,15.27578298,.00010736,43.0022,126.7337,248.1859,111.8879,0,U,59240,999,13236,.28165593E-4,.513E-5,0
STARLINK-31427,2024-049L,2026-07-18T05:03:35.121888,15.27565308,.00011684,43.0027,126.7332,259.6895,100.3825,0,U,59241,999,13236,.59913449E-4,.1386E-4,0
STARLINK-31423,2024-049M,2026-07-18T04:54:19.738368,15.27587626,.0001225,43.0023,126.7098,272.8169,87.2542,0,U,59242,999,13236,.28415778E-4,.52E-5,0
STARLINK-31433,2024-049N,2026-07-18T12:08:06.146016,15.27582480,.00008122,43.0027,124.6771,268.7533,91.3226,0,U,59243,999,13241,-.49237555E-4,-.1617E-4,0
STARLINK-31285,2024-049P,2026-07-18T11:45:54.042048,15.27606950,.00015891,43.0017,124.5565,291.9629,68.1054,0,U,59244,999,13240,-.21876838E-3,-.6282E-4,0
STARLINK-31284,2024-049R,2026-07-18T04:11:46.432608,15.27578620,.00006755,43.0022,126.4925,262.6197,97.4577,0,U,59246,999,13235,.31277992E-4,.599E-5,0
STARLINK-31424,2024-049S,2026-07-18T04:25:25.326624,15.27576829,.00010089,43.0026,123.0965,266.1773,93.8964,0,U,59247,999,13239,.2443607E-5,-.195E-5,0
STARLINK-31405,2024-049T,2026-07-18T12:34:00.242688,15.27581307,.00014301,43.0028,124.8061,271.4438,88.6250,0,U,59248,999,13240,.22719198E-4,.363E-5,0
STARLINK-31426,2024-049U,2026-07-18T04:48:46.457280,15.27575218,.00012424,43.0028,126.6755,272.3515,87.7195,0,U,59249,999,13235,.28852326E-4,.532E-5,0
STARLINK-31407,2024-049V,2026-07-18T02:54:17.854272,15.27576241,.00006464,43.0002,115.6962,279.1416,80.9363,0,U,59250,999,13247,.30060751E-4,.565E-5,0
STARLINK-31393,2024-049X,2026-07-18T11:00:34.573536,15.27575702,.00005603,43.0013,110.4639,281.5737,78.5051,0,U,59252,999,13257,.26193743E-4,.459E-5,0
STARLINK-31425,2024-049Y,2026-07-18T11:56:59.990784,15.27574863,.00005321,43.0020,124.6151,269.4278,90.6513,0,U,59253,999,13240,.15574566E-4,.167E-5,0
STARLINK-31659,2024-050A,2026-07-18T12:15:48.227040,15.34387101,.00008771,53.1601,288.6876,83.9816,276.1287,0,U,59254,999,13179,-.26221779E-4,-.1261E-4,0
STARLINK-31629,2024-050B,2026-07-18T06:58:29.068608,15.30199490,.00012789,53.1606,294.4051,96.3400,263.7746,0,U,59255,999,13054,-.6536245E-5,-.553E-5,0
STARLINK-31652,2024-050C,2026-07-18T05:44:35.635776,15.31685620,.0001246,53.1597,294.0929,58.2823,301.8300,0,U,59256,999,13054,.76882335E-4,.202E-4,0
STARLINK-31637,2024-050E,2026-07-18T12:52:50.383200,15.34390252,.00012564,53.1613,292.3898,83.3543,276.7602,0,U,59258,999,13059,.22209E-7,-.375E-5,0
STARLINK-31506,2024-050F,2026-07-18T13:10:08.272704,15.30197940,.00009901,53.1585,293.1727,84.3466,275.7647,0,U,59259,999,13058,.10780429E-3,.2835E-4,0
STARLINK-31639,2024-050H,2026-07-18T07:11:49.668288,15.31704091,.00006731,53.1588,293.7557,93.7422,266.3657,0,U,59261,999,13055,.324278E-6,-.355E-5,0
STARLINK-31598,2024-050K,2026-07-18T06:43:42.680640,15.34387379,.00012116,53.1599,293.6137,81.8235,278.2905,0,U,59263,999,13055,-.2930322E-4,-.1366E-4,0
STARLINK-31645,2024-050L,2026-07-18T15:18:08.818848,15.34398613,.0000953,53.1588,292.3044,89.3253,270.7859,0,U,59264,999,13060,.36257883E-3,.11893E-3,0
STARLINK-31646,2024-050M,2026-07-18T06:52:48.935136,15.34403551,.00010815,53.1571,293.6688,96.3733,263.7393,0,U,59265,999,13055,.18555465E-3,.5899E-4,0
STARLINK-31648,2024-050N,2026-07-18T06:44:48.506208,15.30198005,.00009754,53.1602,294.3466,79.5275,280.5836,0,U,59266,999,13054,.11463245E-4,-.19E-6,0
